BEIDOU 3 (C01)          
1 36287U 10001A   22022.92872948 -.00000270  00000+0  00000+0 0  9993
2 36287   1.8339  46.2642 0001458  41.3060 149.4249  1.00269798 44056
BEIDOU 5 (C06)          
1 36828U 10036A   22022.42903895 -.00000083  00000+0  00000+0 0  9995
2 36828  54.1887 177.5690 0027155 178.0670  27.8883  1.00288900 42118
BEIDOU 6 (C04)          
1 37210U 10057A   22022.86080351 -.00000100  00000+0  00000+0 0  9995
2 37210   0.9056  50.9804 0005789 166.3696  14.7142  1.00273376 41178
BEIDOU 7 (C07)          
1 37256U 10068A   22022.84048201 -.00000181  00000+0  00000+0 0  9992
2 37256  50.4704 291.3901 0017790 188.7179  50.8575  1.00296342 40680
BEIDOU 8 (C08)          
1 37384U 11013A   22022.54493766 -.00000160  00000+0  00000+0 0  9999
2 37384  60.0863  55.7094 0021265 193.1324 175.8316  1.00294124 39566
BEIDOU 9 (C09)          
1 37763U 11038A   22022.91368568 -.00000031  00000+0  00000+0 0  9996
2 37763  54.4738 180.0391 0087400 225.2039 140.8986  1.00264717 38547
BEIDOU 10 (C10)         
1 37948U 11073A   22022.83705031 -.00000135  00000+0  00000+0 0  9996
2 37948  50.5835 291.0211 0078060 219.2978   8.2082  1.00285759 37292
BEIDOU 11 (C05)         
1 38091U 12008A   22022.91243674  .00000067  00000+0  00000+0 0  9997
2 38091   2.0394  71.8509 0007154 274.8151 162.8037  1.00275337 36370
BEIDOU 12 (C11)         
1 38250U 12018A   22022.11200079 -.00000063  00000+0  00000+0 0  9996
2 38250  56.7287 358.3924 0024610 254.7155 120.3547  1.86234334 66368
BEIDOU 13 (C12)         
1 38251U 12018B   22022.90839560 -.00000062  00000+0  00000+0 0  9996
2 38251  56.6489 357.7009 0015556 259.7458 333.5527  1.86234197 66373
BEIDOU 15 (C14)         
1 38775U 12050B   22022.69689279  .00000009  00000+0  00000+0 0  9999
2 38775  55.3181 116.5943 0012217 321.8935 326.4526  1.86231195 63742
BEIDOU 16 (C02)         
1 38953U 12059A   22022.92619014 -.00000164  00000+0  00000+0 0  9995
2 38953   1.6298  84.5558 0012284 277.9704 177.1556  1.00270088 33941
BEIDOU 17 (C31)         
1 40549U 15019A   22022.77611451 -.00000172  00000+0  00000+0 0  9997
2 40549  52.1353 314.4482 0035635 190.8304 352.5109  1.00273713 24977
BEIDOU 18 (C57)         
1 40748U 15037A   22023.04045369 -.00000063  00000+0  00000+0 0  9997
2 40748  55.9050 356.6507 0004437 336.6318 254.8590  1.86233281 44206
BEIDOU 19 (C58)         
1 40749U 15037B   22022.83974328 -.00000064  00000+0  00000+0 0  9991
2 40749  55.9073 356.6467 0006917 308.2792 283.7620  1.86232135 44193
BEIDOU 20 (C18)         
1 40938U 15053A   22023.11099382 -.00000111  00000+0  00000+0 0  9992
2 40938  51.7241 277.5460 0042746 194.1637 146.8028  1.00279138 23242
BEIDOU IGSO-6 (C13)     
1 41434U 16021A   22022.49015817 -.00000136  00000+0  00000+0 0  9998
2 41434  57.8843  54.3509 0045147 217.4040 122.2052  1.00270224 21362
BEIDOU-2 G7 (C03)       
1 41586U 16037A   22023.14764541 -.00000343  00000+0  00000+0 0  9991
2 41586   1.6541  67.1764 0008145 359.7935 219.0775  1.00277680 20670
BEIDOU-3 M1 (C19)       
1 43001U 17069A   22023.10805028  .00000008  00000+0  00000+0 0  9990
2 43001  55.4719 116.5611 0008922 283.9404  76.2175  1.86231597 28698
BEIDOU-3 M2 (C20)       
1 43002U 17069B   22023.04089220  .00000008  00000+0  00000+0 0  9992
2 43002  55.4712 116.5995 0006974 308.3739  49.9469  1.86231363 28677
BEIDOU-3 M3 (C27)       
1 43107U 18003A   22022.63497691 -.00000065  00000+0  00000+0 0  9990
2 43107  55.3519 357.6459 0003945  35.8032 216.3626  1.86232432 27439
BEIDOU-3 M4 (C28)       
1 43108U 18003B   22023.10619877 -.00000064  00000+0  00000+0 0  9995
2 43108  55.3456 357.6198 0004112 264.8371 347.9733  1.86231174 27440
BEIDOU-3 M5 (C21)       
1 43207U 18018A   22022.10164805  .00000010  00000+0  00000+0 0  9996
2 43207  55.4303 116.7135 0004309 333.8657  26.1410  1.86231505 26815
BEIDOU-3 M6 (C22)       
1 43208U 18018B   22022.16833835  .00000010  00000+0  00000+0 0  9999
2 43208  55.4296 116.7166 0006858 294.3587  65.5994  1.86231641 26810
BEIDOU-3 M7 (C29)       
1 43245U 18029A   22022.77111905 -.00000065  00000+0  00000+0 0  9997
2 43245  55.2733 355.4200 0001493 296.2724 317.5062  1.86232542 25973
BEIDOU-3 M8 (C30)       
1 43246U 18029B   22022.70232211 -.00000065  00000+0  10000-3 0  9990
2 43246  55.2710 355.4534 0004739 339.6361 274.4324  1.86232777 25965
BEIDOU IGSO-7 (C16)     
1 43539U 18057A   22022.88820980 -.00000083  00000+0  00000+0 0  9996
2 43539  55.0682 176.9931 0040648 220.5496 155.7964  1.00254453 13058
BEIDOU-3 M9 (C23)       
1 43581U 18062A   22022.43042509  .00000080  00000+0  00000+0 0  9999
2 43581  54.3217 237.0869 0002676 322.0360 320.3320  1.86231938 23703
BEIDOU-3 M10 (C24)      
1 43582U 18062B   22022.83878641  .00000082  00000+0  00000+0 0  9990
2 43582  54.3211 237.0634 0006887  16.9852 270.8184  1.86232345 23712
BEIDOU-3 M11 (C25)      
1 43602U 18067A   22022.79103976  .00000084  00000+0  00000+0 0  9997
2 43602  54.4006 235.6669 0007976  11.4594 285.9963  1.86231583 23202
BEIDOU-3 M12 (C26)      
1 43603U 18067B   22022.19429407  .00000081  00000+0  00000+0 0  9999
2 43603  54.3980 235.6536 0005014   6.1461 161.6257  1.86231530 23210
BEIDOU-3 M13 (C32)      
1 43622U 18072A   22022.89556832  .00000008  00000+0  00000+0 0  9995
2 43622  55.3970 116.2474 0005690 275.3908  32.2872  1.86231421 22733
BEIDOU-3 M14 (C33)      
1 43623U 18072B   22022.84021998  .00000008  00000+0  00000+0 0  9991
2 43623  55.3983 116.2416 0003401 302.7976  58.0055  1.86231419 22749
BEIDOU-3 M15 (C34)      
1 43647U 18078A   22022.83631155 -.00000065  00000+0  10000-3 0  9993
2 43647  55.1682 355.5893 0007282 349.6678 263.8779  1.86232989 22243
BEIDOU-3 M16 (C35)      
1 43648U 18078B   22022.90809468 -.00000065  00000+0  00000+0 0  9991
2 43648  55.1636 355.5934 0004765 354.4153 215.3118  1.86232254 22260
BEIDOU-3 G1 (C59)       
1 43683U 18085A   22022.85687868 -.00000266  00000+0  00000+0 0  9993
2 43683   0.8427 192.7049 0002521  32.0570 345.9203  1.00272267 11955
BEIDOU-3 M17 (C36)      
1 43706U 18093A   22022.21074834  .00000079  00000+0  00000+0 0  9992
2 43706  54.4033 236.9687 0007503 286.7668  73.2094  1.86231871 21612
BEIDOU-3 M18 (C37)      
1 43707U 18093B   22023.04001295  .00000084  00000+0  00000+0 0  9992
2 43707  54.4033 236.9319 0007604 317.8849 329.1535  1.86232196 21618
BEIDOU-3 IGSO-1 (C38)   
1 44204U 19023A   22022.99545147 -.00000197  00000+0  00000+0 0  9997
2 44204  56.3430  54.5406 0022523 195.2204 347.4072  1.00254750 10257
BEIDOU-2 G8             
1 44231U 19027A   22023.21663706 -.00000235  00000+0  00000+0 0  9992
2 44231   0.5263  66.3400 0006277 149.9085 128.7365  1.00276123  9967
BEIDOU-3 IGSO-2 (C39)   
1 44337U 19035A   22022.70420303 -.00000094  00000+0  00000+0 0  9998
2 44337  55.1111 173.0237 0021906 186.8712 131.4853  1.00297729  9585
BEIDOU-3 M23 (C45)      
1 44542U 19061A   22021.60909454  .00000078  00000+0  00000+0 0  9993
2 44542  54.6292 237.1021 0008830 352.5851   7.4636  1.86231461 15850
BEIDOU-3 M24 (C46)      
1 44543U 19061B   22023.12356366  .00000084  00000+0  00000+0 0  9998
2 44543  54.6262 237.0206 0005864 349.2446 217.3027  1.86231954 15874
BEIDOU-3 IGSO-3         
1 44709U 19073A   22022.72984166 -.00000172  00000+0  00000+0 0  9994
2 44709  57.5014 297.8976 0017747 183.7470  19.7153  1.00251354  8344
BEIDOU-3 M21            
1 44793U 19078A   22023.20795867 -.00000065  00000+0  10000-3 0  9990
2 44793  55.0167 355.6159 0006790 356.2976 100.5458  1.86232256 14741
BEIDOU-3 M22            
1 44794U 19078B   22022.33076113 -.00000066  00000+0  00000+0 0  9996
2 44794  54.9908 355.6408 0004773 347.6372 152.4692  1.86232723 14726
BEIDOU-3 M19            
1 44864U 19090A   22022.83040756  .00000008  00000+0  00000+0 0  9992
2 44864  55.3317 116.4690 0016116 264.3063  45.3293  1.86231742 14317
BEIDOU-3 M20            
1 44865U 19090B   22022.77341075  .00000009  00000+0  00000+0 0  9995
2 44865  55.3337 116.5028 0014148 278.8258  82.4864  1.86231707 14299
BEIDOU-3 G2             
1 45344U 20017A   22023.13186088 -.00000127  00000+0  00000+0 0  9993
2 45344   2.1808 345.1855 0000766  44.8316 219.9228  1.00270322  7161
BEIDOU-3 G3             
1 45807U 20040A   22022.92271141 -.00000340  00000+0  00000+0 0  9991
2 45807   1.7742 300.1430 0009355 350.0700 274.5902  1.00265606  5971
